{
  "type": "FeatureCollection",
  "features": [
    {
      "type": "Feature",
      "properties": {
        "norad_id": 30172,
        "name": "FENGYUN 1C DEB",
        "group": "fengyun-1c-debris",
        "lat": -36.26062796267324,
        "lon": 129.13511175524616,
        "alt_km": 808.7893413504326,
        "timestamp": "2025-12-03T04:52:29.911541+00:00",
        "meta_object_name": "FENGYUN 1C DEB",
        "meta_object_id": "1999-025UD",
        "meta_epoch": "2025-12-02T17:59:19.625280",
        "meta_mean_motion": 14.12382427,
        "meta_eccentricity": 0.0068956,
        "meta_inclination": 99.2335,
        "meta_ra_of_asc_node": 315.5208,
        "meta_arg_of_pericenter": 230.5576,
        "meta_mean_anomaly": 201.2764,
        "meta_ephemeris_type": 0,
        "meta_classification_type": "U",
        "meta_norad_cat_id": 30172,
        "meta_element_set_no": 999,
        "meta_rev_at_epoch": 96376,
        "meta_bstar": 0.0018954,
        "meta_mean_motion_dot": 3.527e-05,
        "meta_mean_motion_ddot": 0,
        "tle_line1": "1 30172U 99025UD  25336.74953270  .00003527  00000+0  18954-2 0  9999",
        "tle_line2": "2 30172  99.2335 315.5208 0068956 230.5576 201.2764 14.12382427963769"
      },
      "geometry": {
        "type": "Point",
        "coordinates": [
          129.13511175524616,
          -36.26062796267324
        ]
      }
    },
    {
      "type": "Feature",
      "properties": {
        "norad_id": 30173,
        "name": "FENGYUN 1C DEB",
        "group": "fengyun-1c-debris",
        "lat": -37.90906559923507,
        "lon": -139.1082648248107,
        "alt_km": 868.4798621213204,
        "timestamp": "2025-12-03T04:52:29.911551+00:00",
        "meta_object_name": "FENGYUN 1C DEB",
        "meta_object_id": "1999-025UE",
        "meta_epoch": "2025-12-02T04:16:36.503328",
        "meta_mean_motion": 14.11292894,
        "meta_eccentricity": 0.00797398,
        "meta_inclination": 98.9782,
        "meta_ra_of_asc_node": 46.9388,
        "meta_arg_of_pericenter": 318.882,
        "meta_mean_anomaly": 95.9853,
        "meta_ephemeris_type": 0,
        "meta_classification_type": "U",
        "meta_norad_cat_id": 30173,
        "meta_element_set_no": 999,
        "meta_rev_at_epoch": 96400,
        "meta_bstar": 0.0015712939,
        "meta_mean_motion_dot": 2.88e-05,
        "meta_mean_motion_ddot": 0,
        "tle_line1": "1 30173U 99025UE  25336.17820027  .00002880  00000+0  15713-2 0  9991",
        "tle_line2": "2 30173  98.9782  46.9388 0079739 318.8820  95.9853 14.11292894964001"
      },
      "geometry": {
        "type": "Point",
        "coordinates": [
          -139.1082648248107,
          -37.90906559923507
        ]
      }
    },
    {
      "type": "Feature",
      "properties": {
        "norad_id": 30174,
        "name": "FENGYUN 1C DEB",
        "group": "fengyun-1c-debris",
        "lat": 17.13380698590145,
        "lon": 122.41532803857052,
        "alt_km": 624.4841147736925,
        "timestamp": "2025-12-03T04:52:29.911562+00:00",
        "meta_object_name": "FENGYUN 1C DEB",
        "meta_object_id": "1999-025UF",
        "meta_epoch": "2025-12-02T09:26:51.848160",
        "meta_mean_motion": 14.79908271,
        "meta_eccentricity": 0.00178925,
        "meta_inclination": 98.776,
        "meta_ra_of_asc_node": 124.2613,
        "meta_arg_of_pericenter": 84.3959,
        "meta_mean_anomaly": 303.1312,
        "meta_ephemeris_type": 0,
        "meta_classification_type": "U",
        "meta_norad_cat_id": 30174,
        "meta_element_set_no": 999,
        "meta_rev_at_epoch": 98215,
        "meta_bstar": 0.005355411,
        "meta_mean_motion_dot": 0.00040703,
        "meta_mean_motion_ddot": 0,
        "tle_line1": "1 30174U 99025UF  25336.39365565  .00040703  00000+0  53554-2 0  9998",
        "tle_line2": "2 30174  98.7760 124.2613 0017892  84.3959 303.1312 14.79908271982154"
      },
      "geometry": {
        "type": "Point",
        "coordinates": [
          122.41532803857052,
          17.13380698590145
        ]
      }
    },
    {
      "type": "Feature",
      "properties": {
        "norad_id": 30175,
        "name": "FENGYUN 1C DEB",
        "group": "fengyun-1c-debris",
        "lat": 14.001214820625506,
        "lon": -144.34611070741656,
        "alt_km": 917.2826868181637,
        "timestamp": "2025-12-03T04:52:29.911590+00:00",
        "meta_object_name": "FENGYUN 1C DEB",
        "meta_object_id": "1999-025UG",
        "meta_epoch": "2025-12-02T02:20:13.261344",
        "meta_mean_motion": 13.83850181,
        "meta_eccentricity": 0.01459289,
        "meta_inclination": 99.3826,
        "meta_ra_of_asc_node": 32.1875,
        "meta_arg_of_pericenter": 240.9872,
        "meta_mean_anomaly": 180.5487,
        "meta_ephemeris_type": 0,
        "meta_classification_type": "U",
        "meta_norad_cat_id": 30175,
        "meta_element_set_no": 999,
        "meta_rev_at_epoch": 95193,
        "meta_bstar": 0.00046525115,
        "meta_mean_motion_dot": 5.14e-06,
        "meta_mean_motion_ddot": 0,
        "tle_line1": "1 30175U 99025UG  25336.09737571  .00000514  00000+0  46525-3 0  9993",
        "tle_line2": "2 30175  99.3826  32.1875 0145928 240.9872 180.5487 13.83850181951930"
      },
      "geometry": {
        "type": "Point",
        "coordinates": [
          -144.34611070741656,
          14.001214820625506
        ]
      }
    },
    {
      "type": "Feature",
      "properties": {
        "norad_id": 30177,
        "name": "FENGYUN 1C DEB",
        "group": "fengyun-1c-debris",
        "lat": -26.618712142697852,
        "lon": -73.73083821967231,
        "alt_km": 1359.34333015202,
        "timestamp": "2025-12-03T04:52:29.911602+00:00",
        "meta_object_name": "FENGYUN 1C DEB",
        "meta_object_id": "1999-025UJ",
        "meta_epoch": "2025-12-02T20:33:29.166048",
        "meta_mean_motion": 13.62781779,
        "meta_eccentricity": 0.0451194,
        "meta_inclination": 98.6255,
        "meta_ra_of_asc_node": 281.5984,
        "meta_arg_of_pericenter": 164.4417,
        "meta_mean_anomaly": 268.5512,
        "meta_ephemeris_type": 0,
        "meta_classification_type": "U",
        "meta_norad_cat_id": 30177,
        "meta_element_set_no": 999,
        "meta_rev_at_epoch": 93328,
        "meta_bstar": 0.00075628,
        "meta_mean_motion_dot": 1.139e-05,
        "meta_mean_motion_ddot": 0,
        "tle_line1": "1 30177U 99025UJ  25336.85658757  .00001139  00000+0  75628-3 0  9997",
        "tle_line2": "2 30177  98.6255 281.5984 0451194 164.4417 268.5512 13.62781779933288"
      },
      "geometry": {
        "type": "Point",
        "coordinates": [
          -73.73083821967231,
          -26.618712142697852
        ]
      }
    },
    {
      "type": "Feature",
      "properties": {
        "norad_id": 30178,
        "name": "FENGYUN 1C DEB",
        "group": "fengyun-1c-debris",
        "lat": -2.1212984583276904,
        "lon": -151.26855669900098,
        "alt_km": 1224.4842830851385,
        "timestamp": "2025-12-03T04:52:29.911613+00:00",
        "meta_object_name": "FENGYUN 1C DEB",
        "meta_object_id": "1999-025UK",
        "meta_epoch": "2025-12-02T15:02:20.004288",
        "meta_mean_motion": 13.58643565,
        "meta_eccentricity": 0.02804705,
        "meta_inclination": 102.26,
        "meta_ra_of_asc_node": 207.5511,
        "meta_arg_of_pericenter": 150.4055,
        "meta_mean_anomaly": 270.6798,
        "meta_ephemeris_type": 0,
        "meta_classification_type": "U",
        "meta_norad_cat_id": 30178,
        "meta_element_set_no": 999,
        "meta_rev_at_epoch": 93034,
        "meta_bstar": 0.0017054232,
        "meta_mean_motion_dot": 1.548e-05,
        "meta_mean_motion_ddot": 0,
        "tle_line1": "1 30178U 99025UK  25336.62662042  .00001548  00000+0  17054-2 0  9997",
        "tle_line2": "2 30178 102.2600 207.5511 0280470 150.4055 270.6798 13.58643565930348"
      },
      "geometry": {
        "type": "Point",
        "coordinates": [
          -151.26855669900098,
          -2.1212984583276904
        ]
      }
    },
    {
      "type": "Feature",
      "properties": {
        "norad_id": 30181,
        "name": "FENGYUN 1C DEB",
        "group": "fengyun-1c-debris",
        "lat": 73.2118099883978,
        "lon": 29.202077079720016,
        "alt_km": 767.7646927872784,
        "timestamp": "2025-12-03T04:52:29.911623+00:00",
        "meta_object_name": "FENGYUN 1C DEB",
        "meta_object_id": "1999-025UN",
        "meta_epoch": "2025-12-02T19:02:30.002784",
        "meta_mean_motion": 14.29119289,
        "meta_eccentricity": 0.0040438,
        "meta_inclination": 98.8446,
        "meta_ra_of_asc_node": 59.8579,
        "meta_arg_of_pericenter": 29.896,
        "meta_mean_anomaly": 98.7134,
        "meta_ephemeris_type": 0,
        "meta_classification_type": "U",
        "meta_norad_cat_id": 30181,
        "meta_element_set_no": 999,
        "meta_rev_at_epoch": 97369,
        "meta_bstar": 0.0020264,
        "meta_mean_motion_dot": 5.141e-05,
        "meta_mean_motion_ddot": 0,
        "tle_line1": "1 30181U 99025UN  25336.79340281  .00005141  00000+0  20264-2 0  9997",
        "tle_line2": "2 30181  98.8446  59.8579 0040438  29.8960  98.7134 14.29119289973692"
      },
      "geometry": {
        "type": "Point",
        "coordinates": [
          29.202077079720016,
          73.2118099883978
        ]
      }
    }
  ]
}